JILIN-1                 
1 40961U 15057D   26188.52405611  .00000690  00000+0  10176-3 0  9999
2 40961  97.6514 186.8817 0016510 191.8837 168.1987 14.78193262578613
JILIN-1 03              
1 41914U 17002B   26188.53456565  .00009172  00000+0  21624-3 0  9999
2 41914  97.1953 195.3380 0008012  99.6305 260.5848 15.42094278524991
JILIN-1 04              
1 43022U 17074A   26188.51824740  .00009898  00000+0  22658-3 0  9995
2 43022  97.4865 298.6816 0005166 120.0587 240.1174 15.42990121477408
JILIN-1 05              
1 43023U 17074B   26188.53813963  .00006129  00000+0  18752-3 0  9997
2 43023  97.4871 294.9730 0006047 146.2122 213.9507 15.34202924477129
JILIN-1 06              
1 43024U 17074C   26188.51265203  .00004135  00000+0  12835-3 0  9995
2 43024  97.4797 291.9299 0007514 157.4901 202.6673 15.33938161476950
JILIN-1 07              
1 43159U 18008E   26188.49858383  .00006095  00000+0  18122-3 0  9998
2 43159  97.1770 207.8885 0007602 359.0679   1.0549 15.35076181468113
JILIN-1 08              
1 43160U 18008F   26188.51290425  .00004318  00000+0  13374-3 0  9990
2 43160  97.1805 207.1964 0006273  20.4852 339.6642 15.33950088468063
JILIN-1 09              
1 43943U 19005B   26188.51391563  .00003016  00000+0  14037-3 0  9993
2 43943  97.4739 283.3055 0002944  52.7706 307.3798 15.20697542412236
JILIN-1 10              
1 43946U 19005E   26188.52203906  .00004212  00000+0  16686-3 0  9991
2 43946  97.4789 287.3298 0007809 196.3283 163.7705 15.25949966412414
