{"fetched_at":"2026-07-07T18:29:33.473Z","source":"https://celestrak.org/NORAD/elements/gp.php?NAME=JILIN&FORMAT=JSON","constellation":"jilin-1-early","records":[{"OBJECT_NAME":"JILIN-1","OBJECT_ID":"2015-057D","EPOCH":"2026-07-07T12:34:38.447904","CLASSIFICATION_TYPE":"U","MEAN_MOTION":14.78193262,"ECCENTRICITY":0.001651,"INCLINATION":97.6514,"RA_OF_ASC_NODE":186.8817,"ARG_OF_PERICENTER":191.8837,"MEAN_ANOMALY":168.1987,"EPHEMERIS_TYPE":0,"NORAD_CAT_ID":40961,"ELEMENT_SET_NO":999,"REV_AT_EPOCH":57861,"BSTAR":0.00010176,"MEAN_MOTION_DOT":0.0000069,"MEAN_MOTION_DDOT":0},{"OBJECT_NAME":"JILIN-1 03","OBJECT_ID":"2017-002B","EPOCH":"2026-07-07T12:49:46.472160","CLASSIFICATION_TYPE":"U","MEAN_MOTION":15.42094278,"ECCENTRICITY":0.0008012,"INCLINATION":97.1953,"RA_OF_ASC_NODE":195.338,"ARG_OF_PERICENTER":99.6305,"MEAN_ANOMALY":260.5848,"EPHEMERIS_TYPE":0,"NORAD_CAT_ID":41914,"ELEMENT_SET_NO":999,"REV_AT_EPOCH":52499,"BSTAR":0.00021624,"MEAN_MOTION_DOT":0.00009172,"MEAN_MOTION_DDOT":0},{"OBJECT_NAME":"JILIN-1 04","OBJECT_ID":"2017-074A","EPOCH":"2026-07-07T12:26:16.575360","CLASSIFICATION_TYPE":"U","MEAN_MOTION":15.42990121,"ECCENTRICITY":0.0005166,"INCLINATION":97.4865,"RA_OF_ASC_NODE":298.6816,"ARG_OF_PERICENTER":120.0587,"MEAN_ANOMALY":240.1174,"EPHEMERIS_TYPE":0,"NORAD_CAT_ID":43022,"ELEMENT_SET_NO":999,"REV_AT_EPOCH":47740,"BSTAR":0.00022658,"MEAN_MOTION_DOT":0.00009898,"MEAN_MOTION_DDOT":0},{"OBJECT_NAME":"JILIN-1 05","OBJECT_ID":"2017-074B","EPOCH":"2026-07-07T12:54:55.264032","CLASSIFICATION_TYPE":"U","MEAN_MOTION":15.34202924,"ECCENTRICITY":0.0006047,"INCLINATION":97.4871,"RA_OF_ASC_NODE":294.973,"ARG_OF_PERICENTER":146.2122,"MEAN_ANOMALY":213.9507,"EPHEMERIS_TYPE":0,"NORAD_CAT_ID":43023,"ELEMENT_SET_NO":999,"REV_AT_EPOCH":47712,"BSTAR":0.00018752,"MEAN_MOTION_DOT":0.00006129,"MEAN_MOTION_DDOT":0},{"OBJECT_NAME":"JILIN-1 06","OBJECT_ID":"2017-074C","EPOCH":"2026-07-07T12:18:13.135392","CLASSIFICATION_TYPE":"U","MEAN_MOTION":15.33938161,"ECCENTRICITY":0.0007514,"INCLINATION":97.4797,"RA_OF_ASC_NODE":291.9299,"ARG_OF_PERICENTER":157.4901,"MEAN_ANOMALY":202.6673,"EPHEMERIS_TYPE":0,"NORAD_CAT_ID":43024,"ELEMENT_SET_NO":999,"REV_AT_EPOCH":47695,"BSTAR":0.00012835,"MEAN_MOTION_DOT":0.00004135,"MEAN_MOTION_DDOT":0},{"OBJECT_NAME":"JILIN-1 07","OBJECT_ID":"2018-008E","EPOCH":"2026-07-07T11:57:57.642912","CLASSIFICATION_TYPE":"U","MEAN_MOTION":15.35076181,"ECCENTRICITY":0.0007602,"INCLINATION":97.177,"RA_OF_ASC_NODE":207.8885,"ARG_OF_PERICENTER":359.0679,"MEAN_ANOMALY":1.0549,"EPHEMERIS_TYPE":0,"NORAD_CAT_ID":43159,"ELEMENT_SET_NO":999,"REV_AT_EPOCH":46811,"BSTAR":0.00018122,"MEAN_MOTION_DOT":0.00006095,"MEAN_MOTION_DDOT":0},{"OBJECT_NAME":"JILIN-1 08","OBJECT_ID":"2018-008F","EPOCH":"2026-07-07T12:18:34.927200","CLASSIFICATION_TYPE":"U","MEAN_MOTION":15.33950088,"ECCENTRICITY":0.0006273,"INCLINATION":97.1805,"RA_OF_ASC_NODE":207.1964,"ARG_OF_PERICENTER":20.4852,"MEAN_ANOMALY":339.6642,"EPHEMERIS_TYPE":0,"NORAD_CAT_ID":43160,"ELEMENT_SET_NO":999,"REV_AT_EPOCH":46806,"BSTAR":0.00013374,"MEAN_MOTION_DOT":0.00004318,"MEAN_MOTION_DDOT":0},{"OBJECT_NAME":"JILIN-1 09","OBJECT_ID":"2019-005B","EPOCH":"2026-07-07T12:20:02.310432","CLASSIFICATION_TYPE":"U","MEAN_MOTION":15.20697542,"ECCENTRICITY":0.0002944,"INCLINATION":97.4739,"RA_OF_ASC_NODE":283.3055,"ARG_OF_PERICENTER":52.7706,"MEAN_ANOMALY":307.3798,"EPHEMERIS_TYPE":0,"NORAD_CAT_ID":43943,"ELEMENT_SET_NO":999,"REV_AT_EPOCH":41223,"BSTAR":0.00014037,"MEAN_MOTION_DOT":0.00003016,"MEAN_MOTION_DDOT":0},{"OBJECT_NAME":"JILIN-1 10","OBJECT_ID":"2019-005E","EPOCH":"2026-07-07T12:31:44.174784","CLASSIFICATION_TYPE":"U","MEAN_MOTION":15.25949966,"ECCENTRICITY":0.0007809,"INCLINATION":97.4789,"RA_OF_ASC_NODE":287.3298,"ARG_OF_PERICENTER":196.3283,"MEAN_ANOMALY":163.7705,"EPHEMERIS_TYPE":0,"NORAD_CAT_ID":43946,"ELEMENT_SET_NO":999,"REV_AT_EPOCH":41241,"BSTAR":0.00016686,"MEAN_MOTION_DOT":0.00004212,"MEAN_MOTION_DDOT":0}]}
